{"type": "FeatureCollection", "features": [ {"type": "Feature", "properties": {"norad_id": 66628, "name": "STARLINK-35862", "group": "last-30-days", "lat": 23.979550182259104, "lon": -153.57350866153692, "alt_km": 414.36392180578787, "timestamp": "2025-12-12T18:57:42.886190+00:00", "meta": {"OBJECT_NAME": "STARLINK-35862", "OBJECT_ID": "2025-271M", "EPOCH": "2025-12-12T06:00:00.999648", "MEAN_MOTION": 15.51871168, "ECCENTRICITY": 0.0001182, "INCLINATION": 53.1598, "RA_OF_ASC_NODE": 189.5351, "ARG_OF_PERICENTER": 89.8218, "MEAN_ANOMALY": 163.9683, "EPHEMERIS_TYPE": 0, "CLASSIFICATION_TYPE": "U", "NORAD_CAT_ID": 66628, "ELEMENT_SET_NO": 999, "REV_AT_EPOCH": 416, "BSTAR": -0.033761625, "MEAN_MOTION_DOT": -0.01822988, "MEAN_MOTION_DDOT": 0}, "tle": {"line1": "1 66628U 25271M   25346.25001157 -.01822988  00000+0 -33762-1 0  9997", "line2": "2 66628  53.1598 189.5351 0001182  89.8218 163.9683 15.51871168  4161"}}, "geometry": {"type": "Point", "coordinates": [-153.57350866153692, 23.979550182259104]}}, {"type": "Feature", "properties": {"norad_id": 66629, "name": "STARLINK-35956", "group": "last-30-days", "lat": 25.41985737879108, "lon": -152.183240559897, "alt_km": 414.10954825996123, "timestamp": "2025-12-12T18:57:42.886200+00:00", "meta": {"OBJECT_NAME": "STARLINK-35956", "OBJECT_ID": "2025-271N", "EPOCH": "2025-12-12T06:00:00.999648", "MEAN_MOTION": 15.51874366, "ECCENTRICITY": 0.00011508, "INCLINATION": 53.1598, "RA_OF_ASC_NODE": 189.5314, "ARG_OF_PERICENTER": 87.6753, "MEAN_ANOMALY": 168.0321, "EPHEMERIS_TYPE": 0, "CLASSIFICATION_TYPE": "U", "NORAD_CAT_ID": 66629, "ELEMENT_SET_NO": 999, "REV_AT_EPOCH": 416, "BSTAR": -0.033894552, "MEAN_MOTION_DOT": -0.01829513, "MEAN_MOTION_DDOT": 0}, "tle": {"line1": "1 66629U 25271N   25346.25001157 -.01829513  00000+0 -33895-1 0  9996", "line2": "2 66629  53.1598 189.5314 0001150  87.6753 168.0321 15.51874366  4164"}}, "geometry": {"type": "Point", "coordinates": [-152.183240559897, 25.41985737879108]}}, {"type": "Feature", "properties": {"norad_id": 66630, "name": "STARLINK-35949", "group": "last-30-days", "lat": 26.828952524630573, "lon": -150.77894054849293, "alt_km": 414.0415627534585, "timestamp": "2025-12-12T18:57:42.886212+00:00", "meta": {"OBJECT_NAME": "STARLINK-35949", "OBJECT_ID": "2025-271P", "EPOCH": "2025-12-12T06:00:00.999648", "MEAN_MOTION": 15.5188249, "ECCENTRICITY": 0.00012372, "INCLINATION": 53.1598, "RA_OF_ASC_NODE": 189.5262, "ARG_OF_PERICENTER": 100.0179, "MEAN_ANOMALY": 157.6034, "EPHEMERIS_TYPE": 0, "CLASSIFICATION_TYPE": "U", "NORAD_CAT_ID": 66630, "ELEMENT_SET_NO": 999, "REV_AT_EPOCH": 416, "BSTAR": -0.03447775, "MEAN_MOTION_DOT": -0.01857855, "MEAN_MOTION_DDOT": 0}, "tle": {"line1": "1 66630U 25271P   25346.25001157 -.01857855  00000+0 -34478-1 0  9996", "line2": "2 66630  53.1598 189.5262 0001237 100.0179 157.6034 15.51882490  4168"}}, "geometry": {"type": "Point", "coordinates": [-150.77894054849293, 26.828952524630573]}}, {"type": "Feature", "properties": {"norad_id": 66631, "name": "STARLINK-35965", "group": "last-30-days", "lat": 28.268414214222357, "lon": -149.2898362868284, "alt_km": 413.7729120948252, "timestamp": "2025-12-12T18:57:42.886222+00:00", "meta": {"OBJECT_NAME": "STARLINK-35965", "OBJECT_ID": "2025-271Q", "EPOCH": "2025-12-12T06:00:00.999648", "MEAN_MOTION": 15.51871226, "ECCENTRICITY": 9.915e-05, "INCLINATION": 53.1593, "RA_OF_ASC_NODE": 189.523, "ARG_OF_PERICENTER": 88.7253, "MEAN_ANOMALY": 170.816, "EPHEMERIS_TYPE": 0, "CLASSIFICATION_TYPE": "U", "NORAD_CAT_ID": 66631, "ELEMENT_SET_NO": 999, "REV_AT_EPOCH": 416, "BSTAR": -0.033622214, "MEAN_MOTION_DOT": -0.01816217, "MEAN_MOTION_DDOT": 0}, "tle": {"line1": "1 66631U 25271Q   25346.25001157 -.01816217  00000+0 -33622-1 0  9994", "line2": "2 66631  53.1593 189.5230 0000991  88.7253 170.8160 15.51871226  4162"}}, "geometry": {"type": "Point", "coordinates": [-149.2898362868284, 28.268414214222357]}}, {"type": "Feature", "properties": {"norad_id": 66632, "name": "STARLINK-35973", "group": "last-30-days", "lat": 29.665639726801494, "lon": -147.78943769462347, "alt_km": 413.37594220055416, "timestamp": "2025-12-12T18:57:42.886235+00:00", "meta": {"OBJECT_NAME": "STARLINK-35973", "OBJECT_ID": "2025-271R", "EPOCH": "2025-12-12T06:00:00.999648", "MEAN_MOTION": 15.51870006, "ECCENTRICITY": 0.0001047, "INCLINATION": 53.1593, "RA_OF_ASC_NODE": 189.5189, "ARG_OF_PERICENTER": 89.3495, "MEAN_ANOMALY": 172.1111, "EPHEMERIS_TYPE": 0, "CLASSIFICATION_TYPE": "U", "NORAD_CAT_ID": 66632, "ELEMENT_SET_NO": 999, "REV_AT_EPOCH": 410, "BSTAR": -0.033637393, "MEAN_MOTION_DOT": -0.01816903, "MEAN_MOTION_DDOT": 0}, "tle": {"line1": "1 66632U 25271R   25346.25001157 -.01816903  00000+0 -33637-1 0  9993", "line2": "2 66632  53.1593 189.5189 0001047  89.3495 172.1111 15.51870006  4104"}}, "geometry": {"type": "Point", "coordinates": [-147.78943769462347, 29.665639726801494]}}, {"type": "Feature", "properties": {"norad_id": 66633, "name": "STARLINK-35948", "group": "last-30-days", "lat": 31.01957022758545, "lon": -146.2776110257738, "alt_km": 413.2610201323323, "timestamp": "2025-12-12T18:57:42.886245+00:00", "meta": {"OBJECT_NAME": "STARLINK-35948", "OBJECT_ID": "2025-271S", "EPOCH": "2025-12-12T06:00:00.999648", "MEAN_MOTION": 15.51879518, "ECCENTRICITY": 0.00011373, "INCLINATION": 53.1592, "RA_OF_ASC_NODE": 189.5135, "ARG_OF_PERICENTER": 94.5132, "MEAN_ANOMALY": 168.8612, "EPHEMERIS_TYPE": 0, "CLASSIFICATION_TYPE": "U", "NORAD_CAT_ID": 66633, "ELEMENT_SET_NO": 999, "REV_AT_EPOCH": 416, "BSTAR": -0.03444718, "MEAN_MOTION_DOT": -0.01856167, "MEAN_MOTION_DDOT": 0}, "tle": {"line1": "1 66633U 25271S   25346.25001157 -.01856167  00000+0 -34447-1 0  9990", "line2": "2 66633  53.1592 189.5135 0001137  94.5132 168.8612 15.51879518  4162"}}, "geometry": {"type": "Point", "coordinates": [-146.2776110257738, 31.01957022758545]}}, {"type": "Feature", "properties": {"norad_id": 66634, "name": "STARLINK-35967", "group": "last-30-days", "lat": 32.381036384965306, "lon": -144.69051430421763, "alt_km": 412.98604127998533, "timestamp": "2025-12-12T18:57:42.886254+00:00", "meta": {"OBJECT_NAME": "STARLINK-35967", "OBJECT_ID": "2025-271T", "EPOCH": "2025-12-12T06:00:00.999648", "MEAN_MOTION": 15.51881304, "ECCENTRICITY": 0.00011913, "INCLINATION": 53.1592, "RA_OF_ASC_NODE": 189.5093, "ARG_OF_PERICENTER": 94.2047, "MEAN_ANOMALY": 171.0843, "EPHEMERIS_TYPE": 0, "CLASSIFICATION_TYPE": "U", "NORAD_CAT_ID": 66634, "ELEMENT_SET_NO": 999, "REV_AT_EPOCH": 409, "BSTAR": -0.03444685, "MEAN_MOTION_DOT": -0.01856288, "MEAN_MOTION_DDOT": 0}, "tle": {"line1": "1 66634U 25271T   25346.25001157 -.01856288  00000+0 -34447-1 0  9995", "line2": "2 66634  53.1592 189.5093 0001191  94.2047 171.0843 15.51881304  4098"}}, "geometry": {"type": "Point", "coordinates": [-144.69051430421763, 32.381036384965306]}}, {"type": "Feature", "properties": {"norad_id": 66635, "name": "STARLINK-35955", "group": "last-30-days", "lat": 33.74285901241702, "lon": -143.02825214484366, "alt_km": 412.77098665927497, "timestamp": "2025-12-12T18:57:42.886264+00:00", "meta": {"OBJECT_NAME": "STARLINK-35955", "OBJECT_ID": "2025-271U", "EPOCH": "2025-12-12T06:00:00.999648", "MEAN_MOTION": 15.51870123, "ECCENTRICITY": 9.915e-05, "INCLINATION": 53.1595, "RA_OF_ASC_NODE": 189.5061, "ARG_OF_PERICENTER": 84.2072, "MEAN_ANOMALY": 183.0025, "EPHEMERIS_TYPE": 0, "CLASSIFICATION_TYPE": "U", "NORAD_CAT_ID": 66635, "ELEMENT_SET_NO": 999, "REV_AT_EPOCH": 416, "BSTAR": -0.033674023, "MEAN_MOTION_DOT": -0.01818632, "MEAN_MOTION_DDOT": 0}, "tle": {"line1": "1 66635U 25271U   25346.25001157 -.01818632  00000+0 -33674-1 0  9998", "line2": "2 66635  53.1595 189.5061 0000991  84.2072 183.0025 15.51870123  4161"}}, "geometry": {"type": "Point", "coordinates": [-143.02825214484366, 33.74285901241702]}}, {"type": "Feature", "properties": {"norad_id": 66636, "name": "STARLINK-35968", "group": "last-30-days", "lat": 35.063412038097496, "lon": -141.337469728179, "alt_km": 412.34894367638753, "timestamp": "2025-12-12T18:57:42.886274+00:00", "meta": {"OBJECT_NAME": "STARLINK-35968", "OBJECT_ID": "2025-271V", "EPOCH": "2025-12-12T06:00:00.999648", "MEAN_MOTION": 15.51871935, "ECCENTRICITY": 0.00011142, "INCLINATION": 53.1595, "RA_OF_ASC_NODE": 189.5017, "ARG_OF_PERICENTER": 85.3746, "MEAN_ANOMALY": 183.7491, "EPHEMERIS_TYPE": 0, "CLASSIFICATION_TYPE": "U", "NORAD_CAT_ID": 66636, "ELEMENT_SET_NO": 999, "REV_AT_EPOCH": 416, "BSTAR": -0.033637132, "MEAN_MOTION_DOT": -0.01817039, "MEAN_MOTION_DDOT": 0}, "tle": {"line1": "1 66636U 25271V   25346.25001157 -.01817039  00000+0 -33637-1 0  9998", "line2": "2 66636  53.1595 189.5017 0001114  85.3746 183.7491 15.51871935  4167"}}, "geometry": {"type": "Point", "coordinates": [-141.337469728179, 35.063412038097496]}}, {"type": "Feature", "properties": {"norad_id": 66637, "name": "STARLINK-35953", "group": "last-30-days", "lat": 36.35659091548567, "lon": -139.59542273658377, "alt_km": 412.219554328567, "timestamp": "2025-12-12T18:57:42.886283+00:00", "meta": {"OBJECT_NAME": "STARLINK-35953", "OBJECT_ID": "2025-271W", "EPOCH": "2025-12-12T06:00:00.999648", "MEAN_MOTION": 15.51871019, "ECCENTRICITY": 0.0001002, "INCLINATION": 53.1598, "RA_OF_ASC_NODE": 189.4979, "ARG_OF_PERICENTER": 88.6917, "MEAN_ANOMALY": 182.3524, "EPHEMERIS_TYPE": 0, "CLASSIFICATION_TYPE": "U", "NORAD_CAT_ID": 66637, "ELEMENT_SET_NO": 999, "REV_AT_EPOCH": 416, "BSTAR": -0.03368871, "MEAN_MOTION_DOT": -0.01819393, "MEAN_MOTION_DDOT": 0}, "tle": {"line1": "1 66637U 25271W   25346.25001157 -.01819393  00000+0 -33689-1 0  9991", "line2": "2 66637  53.1598 189.4979 0001002  88.6917 182.3524 15.51871019  4164"}}, "geometry": {"type": "Point", "coordinates": [-139.59542273658377, 36.35659091548567]}}]}